{"type": "FeatureCollection", "features": [ {"type": "Feature", "properties": {"norad_id": 31914, "name": "FENGYUN 1C DEB", "group": "fengyun-1c-debris", "lat": 1.1845394226292034, "lon": 31.58102608662736, "alt_km": 760.5667544952066, "timestamp": "2025-12-14T05:42:18.745205+00:00", "meta": {"OBJECT_NAME": "FENGYUN 1C DEB", "OBJECT_ID": "1999-025CLR", "EPOCH": "2025-12-13T09:06:32.770944", "MEAN_MOTION": 14.55713422, "ECCENTRICITY": 0.01830809, "INCLINATION": 99.0263, "RA_OF_ASC_NODE": 210.465, "ARG_OF_PERICENTER": 67.2987, "MEAN_ANOMALY": 294.7447, "EPHEMERIS_TYPE": 0, "CLASSIFICATION_TYPE": "U", "NORAD_CAT_ID": 31914, "ELEMENT_SET_NO": 999, "REV_AT_EPOCH": 68482, "BSTAR": 0.00023930385, "MEAN_MOTION_DOT": 1.249e-05, "MEAN_MOTION_DDOT": 0}, "tle": {"line1": "1 31914U 99025CLR 25347.37954596  .00001249  00000+0  23930-3 0  9997", "line2": "2 31914  99.0263 210.4650 0183080  67.2987 294.7447 14.55713422684825"}}, "geometry": {"type": "Point", "coordinates": [31.58102608662736, 1.1845394226292034]}}, {"type": "Feature", "properties": {"norad_id": 31915, "name": "FENGYUN 1C DEB", "group": "fengyun-1c-debris", "lat": 6.214680359616247, "lon": -173.0346232338577, "alt_km": 842.1892574896237, "timestamp": "2025-12-14T05:42:18.745216+00:00", "meta": {"OBJECT_NAME": "FENGYUN 1C DEB", "OBJECT_ID": "1999-025CLS", "EPOCH": "2025-12-13T00:03:06.467616", "MEAN_MOTION": 14.16211703, "ECCENTRICITY": 0.01010039, "INCLINATION": 98.6326, "RA_OF_ASC_NODE": 4.8196, "ARG_OF_PERICENTER": 269.2547, "MEAN_ANOMALY": 89.7054, "EPHEMERIS_TYPE": 0, "CLASSIFICATION_TYPE": "U", "NORAD_CAT_ID": 31915, "ELEMENT_SET_NO": 999, "REV_AT_EPOCH": 64111, "BSTAR": 0.0012739877, "MEAN_MOTION_DOT": 2.608e-05, "MEAN_MOTION_DDOT": 0}, "tle": {"line1": "1 31915U 99025CLS 25347.00215819  .00002608  00000+0  12740-2 0  9992", "line2": "2 31915  98.6326   4.8196 0101003 269.2547  89.7054 14.16211703641115"}}, "geometry": {"type": "Point", "coordinates": [-173.0346232338577, 6.214680359616247]}}, {"type": "Feature", "properties": {"norad_id": 31916, "name": "FENGYUN 1C DEB", "group": "fengyun-1c-debris", "lat": 73.44476727214152, "lon": -72.88545684074832, "alt_km": 673.0995498548691, "timestamp": "2025-12-14T05:42:18.745226+00:00", "meta": {"OBJECT_NAME": "FENGYUN 1C DEB", "OBJECT_ID": "1999-025CLT", "EPOCH": "2025-12-12T23:03:31.231296", "MEAN_MOTION": 14.32512642, "ECCENTRICITY": 0.01468031, "INCLINATION": 99.3299, "RA_OF_ASC_NODE": 72.165, "ARG_OF_PERICENTER": 95.9505, "MEAN_ANOMALY": 265.843, "EPHEMERIS_TYPE": 0, "CLASSIFICATION_TYPE": "U", "NORAD_CAT_ID": 31916, "ELEMENT_SET_NO": 999, "REV_AT_EPOCH": 64530, "BSTAR": 0.0020858047, "MEAN_MOTION_DOT": 6.325e-05, "MEAN_MOTION_DDOT": 0}, "tle": {"line1": "1 31916U 99025CLT 25346.96077814  .00006325  00000+0  20858-2 0  9997", "line2": "2 31916  99.3299  72.1650 0146803  95.9505 265.8430 14.32512642645305"}}, "geometry": {"type": "Point", "coordinates": [-72.88545684074832, 73.44476727214152]}}, {"type": "Feature", "properties": {"norad_id": 31917, "name": "FENGYUN 1C DEB", "group": "fengyun-1c-debris", "lat": 67.41373498301127, "lon": -39.72758989932079, "alt_km": 862.3059418644816, "timestamp": "2025-12-14T05:42:18.745237+00:00", "meta": {"OBJECT_NAME": "FENGYUN 1C DEB", "OBJECT_ID": "1999-025CLU", "EPOCH": "2025-12-11T19:29:32.155008", "MEAN_MOTION": 14.37615101, "ECCENTRICITY": 0.01891946, "INCLINATION": 98.361, "RA_OF_ASC_NODE": 338.6162, "ARG_OF_PERICENTER": 296.1944, "MEAN_ANOMALY": 185.4004, "EPHEMERIS_TYPE": 0, "CLASSIFICATION_TYPE": "U", "NORAD_CAT_ID": 31917, "ELEMENT_SET_NO": 999, "REV_AT_EPOCH": 96408, "BSTAR": 0.0010050299, "MEAN_MOTION_DOT": 3.66e-05, "MEAN_MOTION_DDOT": 0}, "tle": {"line1": "1 31917U 99025CLU 25345.81217772  .00003660  00000+0  10050-2 0  9992", "line2": "2 31917  98.3610 338.6162 0189194 296.1944 185.4004 14.37615101964084"}}, "geometry": {"type": "Point", "coordinates": [-39.72758989932079, 67.41373498301127]}}, {"type": "Feature", "properties": {"norad_id": 31919, "name": "FENGYUN 1C DEB", "group": "fengyun-1c-debris", "lat": -57.40281893253464, "lon": 145.27600379656786, "alt_km": 757.6560972961488, "timestamp": "2025-12-14T05:42:18.745247+00:00", "meta": {"OBJECT_NAME": "FENGYUN 1C DEB", "OBJECT_ID": "1999-025CLW", "EPOCH": "2025-12-13T15:19:30.280224", "MEAN_MOTION": 14.45759301, "ECCENTRICITY": 0.01022137, "INCLINATION": 99.1013, "RA_OF_ASC_NODE": 130.1156, "ARG_OF_PERICENTER": 203.9399, "MEAN_ANOMALY": 219.6498, "EPHEMERIS_TYPE": 0, "CLASSIFICATION_TYPE": "U", "NORAD_CAT_ID": 31919, "ELEMENT_SET_NO": 999, "REV_AT_EPOCH": 97094, "BSTAR": 0.00070221878, "MEAN_MOTION_DOT": 2.601e-05, "MEAN_MOTION_DDOT": 0}, "tle": {"line1": "1 31919U 99025CLW 25347.63854491  .00002601  00000+0  70222-3 0  9993", "line2": "2 31919  99.1013 130.1156 0102213 203.9399 219.6498 14.45759301970946"}}, "geometry": {"type": "Point", "coordinates": [145.27600379656786, -57.40281893253464]}}, {"type": "Feature", "properties": {"norad_id": 31921, "name": "FENGYUN 1C DEB", "group": "fengyun-1c-debris", "lat": -37.57240355276883, "lon": -112.15539474641218, "alt_km": 912.1634587699054, "timestamp": "2025-12-14T05:42:18.745257+00:00", "meta": {"OBJECT_NAME": "FENGYUN 1C DEB", "OBJECT_ID": "1999-025CLY", "EPOCH": "2025-12-08T10:12:20.735136", "MEAN_MOTION": 13.75255965, "ECCENTRICITY": 0.02021401, "INCLINATION": 99.3376, "RA_OF_ASC_NODE": 234.8801, "ARG_OF_PERICENTER": 276.3573, "MEAN_ANOMALY": 81.4593, "EPHEMERIS_TYPE": 0, "CLASSIFICATION_TYPE": "U", "NORAD_CAT_ID": 31921, "ELEMENT_SET_NO": 999, "REV_AT_EPOCH": 92247, "BSTAR": 0.0017833511, "MEAN_MOTION_DOT": 1.939e-05, "MEAN_MOTION_DDOT": 0}, "tle": {"line1": "1 31921U 99025CLY 25342.42523999  .00001939  00000+0  17834-2 0  9996", "line2": "2 31921  99.3376 234.8801 0202140 276.3573  81.4593 13.75255965922475"}}, "geometry": {"type": "Point", "coordinates": [-112.15539474641218, -37.57240355276883]}}, {"type": "Feature", "properties": {"norad_id": 31922, "name": "FENGYUN 1C DEB", "group": "fengyun-1c-debris", "lat": -71.12669449574382, "lon": 132.61508355605787, "alt_km": 1021.2647371791709, "timestamp": "2025-12-14T05:42:18.745268+00:00", "meta": {"OBJECT_NAME": "FENGYUN 1C DEB", "OBJECT_ID": "1999-025CLZ", "EPOCH": "2025-12-12T23:18:28.585152", "MEAN_MOTION": 13.86606289, "ECCENTRICITY": 0.01615117, "INCLINATION": 98.805, "RA_OF_ASC_NODE": 338.3838, "ARG_OF_PERICENTER": 25.8017, "MEAN_ANOMALY": 29.9204, "EPHEMERIS_TYPE": 0, "CLASSIFICATION_TYPE": "U", "NORAD_CAT_ID": 31922, "ELEMENT_SET_NO": 999, "REV_AT_EPOCH": 93020, "BSTAR": 0.0023546916, "MEAN_MOTION_DOT": 2.994e-05, "MEAN_MOTION_DDOT": 0}, "tle": {"line1": "1 31922U 99025CLZ 25346.97116418  .00002994  00000+0  23547-2 0  9995", "line2": "2 31922  98.8050 338.3838 0161511  25.8017  29.9204 13.86606289930202"}}, "geometry": {"type": "Point", "coordinates": [132.61508355605787, -71.12669449574382]}}, {"type": "Feature", "properties": {"norad_id": 31923, "name": "FENGYUN 1C DEB", "group": "fengyun-1c-debris", "lat": -81.55231310137013, "lon": 171.49055066970755, "alt_km": 867.5624821184374, "timestamp": "2025-12-14T05:42:18.745278+00:00", "meta": {"OBJECT_NAME": "FENGYUN 1C DEB", "OBJECT_ID": "1999-025CMA", "EPOCH": "2025-12-10T04:39:01.801440", "MEAN_MOTION": 13.5487962, "ECCENTRICITY": 0.02988887, "INCLINATION": 98.4426, "RA_OF_ASC_NODE": 78.306, "ARG_OF_PERICENTER": 310.5348, "MEAN_ANOMALY": 47.0108, "EPHEMERIS_TYPE": 0, "CLASSIFICATION_TYPE": "U", "NORAD_CAT_ID": 31923, "ELEMENT_SET_NO": 999, "REV_AT_EPOCH": 63600, "BSTAR": 0.0017886156, "MEAN_MOTION_DOT": 1.598e-05, "MEAN_MOTION_DDOT": 0}, "tle": {"line1": "1 31923U 99025CMA 25344.19377085  .00001598  00000+0  17886-2 0  9995", "line2": "2 31923  98.4426  78.3060 0298888 310.5348  47.0108 13.54879620636004"}}, "geometry": {"type": "Point", "coordinates": [171.49055066970755, -81.55231310137013]}}, {"type": "Feature", "properties": {"norad_id": 31924, "name": "FENGYUN 1C DEB", "group": "fengyun-1c-debris", "lat": -49.612064614093306, "lon": -44.621005201040276, "alt_km": 1174.2711638097026, "timestamp": "2025-12-14T05:42:18.745288+00:00", "meta": {"OBJECT_NAME": "FENGYUN 1C DEB", "OBJECT_ID": "1999-025CMB", "EPOCH": "2025-12-11T09:42:09.001440", "MEAN_MOTION": 13.6390293, "ECCENTRICITY": 0.02728704, "INCLINATION": 98.3997, "RA_OF_ASC_NODE": 142.9288, "ARG_OF_PERICENTER": 100.423, "MEAN_ANOMALY": 262.7788, "EPHEMERIS_TYPE": 0, "CLASSIFICATION_TYPE": "U", "NORAD_CAT_ID": 31924, "ELEMENT_SET_NO": 999, "REV_AT_EPOCH": 91449, "BSTAR": 0.0020856968, "MEAN_MOTION_DOT": 2.1e-05, "MEAN_MOTION_DDOT": 0}, "tle": {"line1": "1 31924U 99025CMB 25345.40427085  .00002100  00000+0  20857-2 0  9999", "line2": "2 31924  98.3997 142.9288 0272870 100.4230 262.7788 13.63902930914499"}}, "geometry": {"type": "Point", "coordinates": [-44.621005201040276, -49.612064614093306]}}, {"type": "Feature", "properties": {"norad_id": 31926, "name": "FENGYUN 1C DEB", "group": "fengyun-1c-debris", "lat": -59.99070992285219, "lon": 99.36334874746748, "alt_km": 778.2281303015761, "timestamp": "2025-12-14T05:42:18.745298+00:00", "meta": {"OBJECT_NAME": "FENGYUN 1C DEB", "OBJECT_ID": "1999-025CMD", "EPOCH": "2025-12-12T05:19:00.782976", "MEAN_MOTION": 14.30719252, "ECCENTRICITY": 0.00390708, "INCLINATION": 98.9566, "RA_OF_ASC_NODE": 81.441, "ARG_OF_PERICENTER": 254.6996, "MEAN_ANOMALY": 104.9866, "EPHEMERIS_TYPE": 0, "CLASSIFICATION_TYPE": "U", "NORAD_CAT_ID": 31926, "ELEMENT_SET_NO": 999, "REV_AT_EPOCH": 95220, "BSTAR": 0.0037395544, "MEAN_MOTION_DOT": 9.832e-05, "MEAN_MOTION_DDOT": 0}, "tle": {"line1": "1 31926U 99025CMD 25346.22153684  .00009832  00000+0  37396-2 0  9998", "line2": "2 31926  98.9566  81.4410 0039070 254.6996 104.9866 14.30719252952200"}}, "geometry": {"type": "Point", "coordinates": [99.36334874746748, -59.99070992285219]}}]}